{
  "links" : {
    "next" : "https://api.nasa.gov/neo/rest/v1/feed?start_date=2007-09-09&end_date=2007-09-09&detailed=true&api_key=t0TVs3DtDT2H8Oy2Zy8m2eVrNsAVKAexjcZXUckd",
    "prev" : "https://api.nasa.gov/neo/rest/v1/feed?start_date=2007-09-07&end_date=2007-09-07&detailed=true&api_key=t0TVs3DtDT2H8Oy2Zy8m2eVrNsAVKAexjcZXUckd",
    "self" : "https://api.nasa.gov/neo/rest/v1/feed?start_date=2007-09-08&end_date=2007-09-08&detailed=true&api_key=t0TVs3DtDT2H8Oy2Zy8m2eVrNsAVKAexjcZXUckd"
  },
  "element_count" : 10,
  "near_earth_objects" : {
    "2007-09-08" : [ {
      "links" : {
        "self" : "https://api.nasa.gov/neo/rest/v1/neo/3651161?api_key=t0TVs3DtDT2H8Oy2Zy8m2eVrNsAVKAexjcZXUckd"
      },
      "neo_reference_id" : "3651161",
      "name" : "(2013 TG135)",
      "nasa_jpl_url" : "http://ssd.jpl.nasa.gov/sbdb.cgi?sstr=3651161",
      "absolute_magnitude_h" : 25.2,
      "estimated_diameter" : {
        "kilometers" : {
          "estimated_diameter_min" : 0.0242412481,
          "estimated_diameter_max" : 0.0542050786
        },
        "meters" : {
          "estimated_diameter_min" : 24.2412481101,
          "estimated_diameter_max" : 54.2050786336
        },
        "miles" : {
          "estimated_diameter_min" : 0.0150628086,
          "estimated_diameter_max" : 0.0336814639
        },
        "feet" : {
          "estimated_diameter_min" : 79.5316564495,
          "estimated_diameter_max" : 177.8381901842
        }
      },
      "is_potentially_hazardous_asteroid" : false,
      "close_approach_data" : [ {
        "close_approach_date" : "2007-09-08",
        "epoch_date_close_approach" : 1189234800000,
        "relative_velocity" : {
          "kilometers_per_second" : "13.9926853797",
          "kilometers_per_hour" : "50373.6673667479",
          "miles_per_hour" : "31300.237925744"
        },
        "miss_distance" : {
          "astronomical" : "0.12948667",
          "lunar" : "50.3703117371",
          "kilometers" : "19370930",
          "miles" : "12036538"
        },
        "orbiting_body" : "Earth"
      } ],
      "orbital_data" : {
        "orbit_id" : "4",
        "orbit_determination_date" : "2017-04-06 08:44:11",
        "orbit_uncertainty" : "8",
        "minimum_orbit_intersection" : ".0304341",
        "jupiter_tisserand_invariant" : "7.998",
        "epoch_osculation" : "2456578.5",
        "eccentricity" : ".4971193535497835",
        "semi_major_axis" : ".7062119861662473",
        "inclination" : "9.525145882038128",
        "ascending_node_longitude" : "193.100775233195",
        "orbital_period" : "216.7709362604008",
        "perihelion_distance" : ".3551403401341737",
        "perihelion_argument" : "351.878132063086",
        "aphelion_distance" : "1.057283632198321",
        "perihelion_time" : "2456664.936346845750",
        "mean_anomaly" : "216.4517670067637",
        "mean_motion" : "1.660739240280543",
        "equinox" : "J2000"
      }
    }, {
      "links" : {
        "self" : "https://api.nasa.gov/neo/rest/v1/neo/3715465?api_key=t0TVs3DtDT2H8Oy2Zy8m2eVrNsAVKAexjcZXUckd"
      },
      "neo_reference_id" : "3715465",
      "name" : "(2015 GJ)",
      "nasa_jpl_url" : "http://ssd.jpl.nasa.gov/sbdb.cgi?sstr=3715465",
      "absolute_magnitude_h" : 17.9,
      "estimated_diameter" : {
        "kilometers" : {
          "estimated_diameter_min" : 0.6991252322,
          "estimated_diameter_max" : 1.5632915441
        },
        "meters" : {
          "estimated_diameter_min" : 699.1252322458,
          "estimated_diameter_max" : 1563.2915440869
        },
        "miles" : {
          "estimated_diameter_min" : 0.4344161447,
          "estimated_diameter_max" : 0.97138403
        },
        "feet" : {
          "estimated_diameter_min" : 2293.7180269613,
          "estimated_diameter_max" : 5128.9094295021
        }
      },
      "is_potentially_hazardous_asteroid" : false,
      "close_approach_data" : [ {
        "close_approach_date" : "2007-09-08",
        "epoch_date_close_approach" : 1189234800000,
        "relative_velocity" : {
          "kilometers_per_second" : "27.3611323298",
          "kilometers_per_hour" : "98500.0763871295",
          "miles_per_hour" : "61204.1169084361"
        },
        "miss_distance" : {
          "astronomical" : "0.3304155534",
          "lunar" : "128.5316467285",
          "kilometers" : "49429464",
          "miles" : "30714044"
        },
        "orbiting_body" : "Earth"
      } ],
      "orbital_data" : {
        "orbit_id" : "21",
        "orbit_determination_date" : "2017-04-06 08:34:33",
        "orbit_uncertainty" : "4",
        "minimum_orbit_intersection" : ".31511",
        "jupiter_tisserand_invariant" : "2.998",
        "epoch_osculation" : "2458000.5",
        "eccentricity" : ".7605844081644045",
        "semi_major_axis" : "2.348036585868982",
        "inclination" : "26.29296526104746",
        "ascending_node_longitude" : "208.2513973768012",
        "orbital_period" : "1314.182610512129",
        "perihelion_distance" : ".5621565688574532",
        "perihelion_argument" : "215.1328613921411",
        "aphelion_distance" : "4.133916602880511",
        "perihelion_time" : "2458327.819175469366",
        "mean_anomaly" : "270.3359744479864",
        "mean_motion" : ".2739345332378961",
        "equinox" : "J2000"
      }
    }, {
      "links" : {
        "self" : "https://api.nasa.gov/neo/rest/v1/neo/2467527?api_key=t0TVs3DtDT2H8Oy2Zy8m2eVrNsAVKAexjcZXUckd"
      },
      "neo_reference_id" : "2467527",
      "name" : "467527 (2007 LA15)",
      "nasa_jpl_url" : "http://ssd.jpl.nasa.gov/sbdb.cgi?sstr=2467527",
      "absolute_magnitude_h" : 19.5,
      "estimated_diameter" : {
        "kilometers" : {
          "estimated_diameter_min" : 0.3346223745,
          "estimated_diameter_max" : 0.7482383761
        },
        "meters" : {
          "estimated_diameter_min" : 334.6223744549,
          "estimated_diameter_max" : 748.2383760735
        },
        "miles" : {
          "estimated_diameter_min" : 0.2079246394,
          "estimated_diameter_max" : 0.464933628
        },
        "feet" : {
          "estimated_diameter_min" : 1097.8424710066,
          "estimated_diameter_max" : 2454.8503937571
        }
      },
      "is_potentially_hazardous_asteroid" : false,
      "close_approach_data" : [ {
        "close_approach_date" : "2007-09-08",
        "epoch_date_close_approach" : 1189234800000,
        "relative_velocity" : {
          "kilometers_per_second" : "8.293615433",
          "kilometers_per_hour" : "29857.0155587865",
          "miles_per_hour" : "18551.9883620693"
        },
        "miss_distance" : {
          "astronomical" : "0.1349487604",
          "lunar" : "52.4950675964",
          "kilometers" : "20188048",
          "miles" : "12544271"
        },
        "orbiting_body" : "Earth"
      } ],
      "orbital_data" : {
        "orbit_id" : "58",
        "orbit_determination_date" : "2017-04-06 09:19:25",
        "orbit_uncertainty" : "0",
        "minimum_orbit_intersection" : ".058006",
        "jupiter_tisserand_invariant" : "4.066",
        "epoch_osculation" : "2458000.5",
        "eccentricity" : ".3811006080892461",
        "semi_major_axis" : "1.726889230007792",
        "inclination" : "8.719476488512568",
        "ascending_node_longitude" : "152.6326393909636",
        "orbital_period" : "828.8866564089286",
        "perihelion_distance" : "1.068770694349052",
        "perihelion_argument" : "177.0254771626148",
        "aphelion_distance" : "2.385007765666531",
        "perihelion_time" : "2457659.135683513006",
        "mean_anomaly" : "148.2605045999073",
        "mean_motion" : ".4343175236523474",
        "equinox" : "J2000"
      }
    } ]
  }
}